#dP2022 12  3  0  0  0.00000000      96 __u+U ITR00 EXT  IAC
## 2238 518400.00000000   900.00000000 59916 0.0000000000000
+  117   C06C07C08C09C10C11C12C13C14C16C19C20C21C22C23C24C25
+        C26C27C28C29C30C32C33C34C35C36C37C38C39C40C41C42C43
+        C44C45C46E01E02E03E04E05E07E09E10E11E12E13E14E15E18
+        E19E21E24E25E26E27E30E31E33E34E36G01G02G03G04G05G06
+        G07G08G09G10G11G12G13G14G15G16G17G18G19G20G21G22G23
+        G24G25G26G27G29G30G31G32J02J03J04R01R02R03R04R05R07
+        R08R09R11R12R13R14R15R17R18R19R20R21R22R24R25  0  0
++         9  9 13  9  8  9  8 16  9 10  7  9  8  9  8  8  8
++         8  8 10  8  9  9  8 10  9  8  8 10 10 10  9  9  9
++         9  8  8  8  8  8  9  8  7  7  7  8  8  8  8  7  8
++         7  8  8  8  7  7  7  7  8  9  8  6  8  7  7  8  7
++         6  9  8  8  7  8  8  9  8  8  7  7  8  7  6  7  7
++         7  8  7  8  8  8  8  8  9  8  9  9  8  7 10  8  8
++         9  9  7 10  8  8  8  7  8  9  9  7  7  9  8  0  0
%c M  cc GPS ccc cccc cccc cccc cccc ccccc ccccc ccccc ccccc
%c cc cc ccc ccc cccc cccc cccc cccc ccccc ccccc ccccc ccccc
%f  0.0000000  0.000000000  0.00000000000  0.000000000000000
%f  0.0000000  0.000000000  0.00000000000  0.000000000000000
%i    0    0    0    0      0      0      0      0         0
%i    0    0    0    0      0      0      0      0         0
/* IAC                                ULTRA-RAPID PREDICTION
/* S/V CLOCKS ARE ALIGNED TO GNSS TIME                      
/* G:C1WC2W R:C1PC2P E:C1XC5X C:C2IC6I J:C1CC2S             
/* PCV:IGS14_2233 OL/AL:FES2004  NONE     YN ORB:CoN CLK:CoN
*  2022 12 03  5 15  0.00000000
PC06  -3244.880071  25192.287128  33689.973895    224.891077
PC07 -16802.895282  34957.122539 -16681.903755    129.141877
PC08  -3441.349581  38868.939650 -15734.001491    519.082592
PC09   4889.022387  27845.750112  31807.664858   -792.082921
PC10 -10095.026293  34717.825909 -21787.528026     58.167836
PC11 -23437.965367   2923.302079 -14809.880451   -257.680514
PC12 -26322.884650  -9116.096468   1837.415965    328.424134
PC13   1863.415770  41135.290780  -8143.091128    148.626321
PC14 -22453.949627  14632.382846  -7852.389256    230.442762
PC16  -9147.618034  22455.102354  34681.505313    107.879816
PC19  19122.447269 -20266.457087  -1408.409543   -907.380345
PC20  22368.711640  -8087.066492  14584.505607    818.476423
PC21 -12355.540606  -9897.684674 -22971.797566   -931.013323
PC22   4664.019940 -21311.580611 -17398.325040   -760.673126
PC23   2832.351143  27191.605756   5571.624985   -873.295419
PC24 -17101.749848  -3701.008127  21730.551721   -725.653336
PC25  -9141.164384  18125.389818  19127.770955     33.768132
PC26 -14845.786838 -20219.414659  12253.005583    -44.477533
PC27  22253.065049  13633.783406  -9913.155243     60.507580
PC28   5683.493853  17067.178933 -21325.000897     42.900268
PC29  15387.992050 -10926.155111  20555.328169     48.633034
PC30  27019.994471   1881.034294   6759.411762      1.129774
PC32  12356.033686   9913.557663  22982.675843   -696.020242
PC33 -19050.102021  20355.296932   1322.531474   -900.296052
PC34 -26745.265884  -1053.008663  -7865.996057     52.691799
PC35  -4408.267188 -16830.233465  21807.657318    115.805398
PC36   9921.212971 -17375.850652 -19438.574386   -795.742548
PC37  13829.205283  21494.325324 -11158.428201   -896.364262
PC38  -8334.013698  35203.919955 -21489.812656     42.328662
PC39 -13014.942190  20786.328579  34298.387025     -0.988891
PC40 -24996.118941  30485.749465 -15243.318525     -9.378350
PC41  -5082.305964  21546.979614  17033.034740   -339.567419
PC42 -22142.138950   7057.815556 -15420.675882   -778.384481
PC43 -16157.599735  10563.429146 -20148.665265     28.144299
PC44 -22570.811530 -12948.581797  10034.522306    133.029979
PC45  -3121.960042 -27249.256832  -5233.199153    -29.946189
PC46  16751.398495   1560.166238 -22262.133569    -17.036890
PE01  17767.232128 -13927.379085 -19149.409878   -574.857494
PE02 -17726.334858  14168.334453  18992.419773      6.265598
PE03 -27343.256410  10247.635806   4859.133680   -626.004651
PE04  12796.792909 -17662.893809 -20014.933410     -5.893928
PE05 -26127.961025  -3367.442336 -13497.594636   -118.776301
PE07   9711.276004  14812.888129  23712.446852     -4.137400
PE09  -9494.945313 -14738.833867 -23855.037955   -750.527088
PE10  -7251.857691 -23150.693587  16965.800654   -495.098563
PE11 -15865.487089 -23741.794598   7780.308902   1041.613861
PE12   1903.262108 -19087.989018  22543.711597   -310.584036
PE13  15286.892739  23818.379049  -8660.251923    430.476496
PE14 -26483.608666  -4956.153702   9275.804235     73.798732
PE15  -2080.387711  18868.248064 -22700.599109    703.469596
PE18  17275.072068  13631.388138 -18125.006774   -672.766125
PE19  28249.143484  -8541.753718  -2344.330450  -3841.264246
PE21  15535.083599   6259.893881 -24405.020706   -498.138684
PE24  -3564.981583 -25035.521351  15396.708854   -980.746987
PE25 -15415.716492  -6630.245609  24390.436340   -594.070242
PE26  23575.442359  14088.842059  11037.806588  -1892.600771
PE27   4310.613354  24430.393084 -16131.922301   -454.049297
PE30  -9899.073501  27791.684453   2265.635583  -1047.278009
PE31   9336.198769 -28052.654733  -1544.998292   -509.691019
PE33  18105.532150  -2819.092987  23256.117031   -455.662392
PE34 -18004.137407   3002.245521 -23305.754841    -17.679808
PE36 -23498.897134 -14764.978498 -10285.513882   -469.747725
PG01  20087.575145  11288.484616  13198.406968    243.047877
PG02 -20604.250822  -6967.287928 -14470.063491   -634.970923
PG03  14794.795179   2467.660607  21789.987634   -374.949810
PG04  25721.052455   1349.356883   6714.165991    -75.603322
PG05  -8783.160488 -16205.575116 -19250.270887   -106.614048
PG06  -1166.053540 -19867.241002  17615.144706    532.099406
PG07  16050.221114  -3533.817014 -20533.263021    279.663137
PG08  19884.043864   7666.002070 -16127.033104    -96.775592
PG09  25045.055329  -7835.060338  -4342.730562   -259.472205
PG10 -11280.522821  23577.960421  -3471.591503    -14.446881
PG11 -10771.871618 -23168.131108   7335.482681    -49.934851
PG12 -14378.514173  -4379.736839  21622.127213   -311.412647
PG13 -12461.679888 -13158.913686 -19656.418397    435.318316
PG14  13471.816268 -22130.336164  -5552.567184    -74.246108
PG15 -20752.320646  -6088.826450 -16046.217064     -7.322195
PG16   3617.794915  19914.273039 -17234.189154   -526.587339
PG17  16926.066418 -12887.736519  16394.280184    682.865102
PG18 -14110.207642   5983.621595 -21705.480773    -44.573283
PG19   5351.748044 -14696.517218  21194.880005    245.432672
PG20  -1970.731962 -24879.775586  -9388.570781    466.081032
PG21  21175.085348  15833.441037   5930.727967    154.723585
PG22  -1811.008834  15488.645362  21911.663274    376.910549
PG23 -15537.707499  16558.601759 -13665.316545     -0.473784
PG24 -21599.929755 -13018.761441   8638.484195     32.876819
PG25 -16824.709512   7442.933347  18753.457417    398.442610
PG26  -2633.993254  25418.305260  -6663.775445    237.469497
PG27   8849.129703  13411.813356 -21436.097138    163.231585
PG29 -26171.442218   4062.005890  -2551.960624   -571.405576
PG30   7145.840528 -15181.109255 -20448.146436   -535.989739
PG31   1796.283555  20729.117588  16075.627279   -202.090482
PG32 -13318.832324  14864.275701  17576.984154   -316.552918
PJ02 -30735.409708  26298.565300  17037.398725     -0.240409
PJ03 -25763.731271  17341.746842 -23859.634150     -5.848149
PJ04 -25354.718734  33573.420143    699.476614    114.233174
PR01 -21280.452454  13912.509405  -2105.739199     18.893763
PR02 -11236.605292  16438.951545  15935.524202    -23.413821
PR03   5367.581520   9550.124285  23073.136444     68.368951
PR04  18496.976571  -2565.344720  17408.525985    167.143686
PR05  21749.106962 -13177.925948   2204.527910    103.910264
PR07  -5961.992516  -9119.767204 -23030.535283     45.396173
PR08 -18582.471861   2710.285479 -17192.324398    -68.407832
PR09   1140.753513 -24463.912418  -6982.932921     90.912317
PR11 -10926.601627  -8437.800752  21455.145427     17.334978
PR12  -8935.520803  12169.464479  20577.102100     23.329327
PR13  -2017.833263  23932.290287   8569.502698    -29.555045
PR14   6820.219012  22331.258666 -10276.916762     24.064420
PR15  11027.574496   7440.723494 -21747.284143     92.581347
PR17  16571.834444  14622.972339 -12683.063213    583.524361
PR18  23254.948262   9863.772538   3742.768254     54.941653
PR19  18620.015157   1283.735965  17389.809037   -213.168347
PR20    855.009881 -11122.838348  22949.908968    -83.259893
PR21 -17676.066711 -14555.751595  11279.481890   -354.489884
PR22 -22902.948739 -10300.504946  -4412.783627     19.640849
PR24    -33.811219  11832.127446 -22571.759800    130.321127
PR25 -15471.888773 -15609.721650  12976.645822     47.896751
EOF
